[
    {
        "Altitude(m)": 707178.9869185782,
        "Argument of Periapsis(deg)": 0.0,
        "Eccentricity": 0.0,
        "Inclination(deg)": 45.0,
        "Latitude(deg)": 44.57291065361855,
        "Longitude(deg)": 76.53624113134035,
        "Mean Anomaly(deg)": 98.18180000000001,
        "RAAN(deg)": 75.0,
        "Satellite Name": "Constellation 1 336",
        "Satellite Number": 336,
        "Semi-Major Axis(m)": 7083131.272910544,
        "Time(s)": 0
    },
    {
        "Altitude(m)": 707177.0508276338,
        "Argument of Periapsis(deg)": 5.994800624540561e-05,
        "Eccentricity": 0.0,
        "Inclination(deg)": 45.0,
        "Latitude(deg)": 44.56430001686757,
        "Longitude(deg)": 76.6163030765722,
        "Mean Anomaly(deg)": 98.2425011402499,
        "RAAN(deg)": 74.99994341083443,
        "Satellite Name": "Constellation 1 336",
        "Satellite Number": 336,
        "Semi-Major Axis(m)": 7083131.272910544,
        "Time(s)": 1
    },
    {
        "Altitude(m)": 707175.1008778606,
        "Argument of Periapsis(deg)": 0.00011989601249081122,
        "Eccentricity": 0.0,
        "Inclination(deg)": 45.0,
        "Latitude(deg)": 44.55562738072525,
        "Longitude(deg)": 76.69634012107889,
        "Mean Anomaly(deg)": 98.30320228049979,
        "RAAN(deg)": 74.99988682166885,
        "Satellite Name": "Constellation 1 336",
        "Satellite Number": 336,
        "Semi-Major Axis(m)": 7083131.272910544,
        "Time(s)": 2
    },
    {
        "Altitude(m)": 707173.1370807285,
        "Argument of Periapsis(deg)": 0.00017984401873621686,
        "Eccentricity": 0.0,
        "Inclination(deg)": 45.0,
        "Latitude(deg)": 44.546892782013586,
        "Longitude(deg)": 76.77635210132703,
        "Mean Anomaly(deg)": 98.36390342074968,
        "RAAN(deg)": 74.9998302325033,
        "Satellite Name": "Constellation 1 336",
        "Satellite Number": 336,
        "Semi-Major Axis(m)": 7083131.272910544,
        "Time(s)": 3
    },
    {
        "Altitude(m)": 707171.1594477957,
        "Argument of Periapsis(deg)": 0.00023979202498162244,
        "Eccentricity": 0.0,
        "Inclination(deg)": 45.0,
        "Latitude(deg)": 44.53809625778986,
        "Longitude(deg)": 76.8563388542008,
        "Mean Anomaly(deg)": 98.4246045609996,
        "RAAN(deg)": 74.99977364333773,
        "Satellite Name": "Constellation 1 336",
        "Satellite Number": 336,
        "Semi-Major Axis(m)": 7083131.272910544,
        "Time(s)": 4
    },
    {
        "Altitude(m)": 707169.1679906945,
        "Argument of Periapsis(deg)": 0.00029974003122702807,
        "Eccentricity": 0.0,
        "Inclination(deg)": 45.0,
        "Latitude(deg)": 44.529237845346024,
        "Longitude(deg)": 76.93630021700429,
        "Mean Anomaly(deg)": 98.48530570124949,
        "RAAN(deg)": 74.99971705417215,
        "Satellite Name": "Constellation 1 336",
        "Satellite Number": 336,
        "Semi-Major Axis(m)": 7083131.272910544,
        "Time(s)": 5
    },
    {
        "Altitude(m)": 707167.1627211438,
        "Argument of Periapsis(deg)": 0.00035968803747243373,
        "Eccentricity": 0.0,
        "Inclination(deg)": 45.0,
        "Latitude(deg)": 44.52031758220773,
        "Longitude(deg)": 77.01623602746407,
        "Mean Anomaly(deg)": 98.54600684149936,
        "RAAN(deg)": 74.99966046500658,
        "Satellite Name": "Constellation 1 336",
        "Satellite Number": 336,
        "Semi-Major Axis(m)": 7083131.272910544,
        "Time(s)": 6
    },
    {
        "Altitude(m)": 707165.1436509445,
        "Argument of Periapsis(deg)": 0.00041963604371783933,
        "Eccentricity": 0.0,
        "Inclination(deg)": 45.0,
        "Latitude(deg)": 44.511335506133804,
        "Longitude(deg)": 77.09614595563359,
        "Mean Anomaly(deg)": 98.60670798174927,
        "RAAN(deg)": 74.99960387584102,
        "Satellite Name": "Constellation 1 336",
        "Satellite Number": 336,
        "Semi-Major Axis(m)": 7083131.272910544,
        "Time(s)": 7
    },
    {
        "Altitude(m)": 707163.1107919778,
        "Argument of Periapsis(deg)": 0.0004795840499632449,
        "Eccentricity": 0.0,
        "Inclination(deg)": 45.0,
        "Latitude(deg)": 44.50229165511564,
        "Longitude(deg)": 77.17603017628483,
        "Mean Anomaly(deg)": 98.66740912199919,
        "RAAN(deg)": 74.99954728667545,
        "Satellite Name": "Constellation 1 336",
        "Satellite Number": 336,
        "Semi-Major Axis(m)": 7083131.272910544,
        "Time(s)": 8
    },
    {
        "Altitude(m)": 707161.0641562061,
        "Argument of Periapsis(deg)": 0.0005395320562086505,
        "Eccentricity": 0.0,
        "Inclination(deg)": 45.0,
        "Latitude(deg)": 44.49318606737608,
        "Longitude(deg)": 77.25588836032665,
        "Mean Anomaly(deg)": 98.72811026224909,
        "RAAN(deg)": 74.99949069750987,
        "Satellite Name": "Constellation 1 336",
        "Satellite Number": 336,
        "Semi-Major Axis(m)": 7083131.272910544,
        "Time(s)": 9
    },
    {
        "Altitude(m)": 707159.0037556704,
        "Argument of Periapsis(deg)": 0.0005994800624540561,
        "Eccentricity": 0.0,
        "Inclination(deg)": 45.0,
        "Latitude(deg)": 44.48401878136896,
        "Longitude(deg)": 77.33572034719614,
        "Mean Anomaly(deg)": 98.788811402499,
        "RAAN(deg)": 74.9994341083443,
        "Satellite Name": "Constellation 1 336",
        "Satellite Number": 336,
        "Semi-Major Axis(m)": 7083131.272910544,
        "Time(s)": 10
    },
    {
        "Altitude(m)": 707156.9296025052,
        "Argument of Periapsis(deg)": 0.0006594280686994618,
        "Eccentricity": 0.0,
        "Inclination(deg)": 45.0,
        "Latitude(deg)": 44.47478983577821,
        "Longitude(deg)": 77.41552597676342,
        "Mean Anomaly(deg)": 98.84951254274888,
        "RAAN(deg)": 74.99937751917875,
        "Satellite Name": "Constellation 1 336",
        "Satellite Number": 336,
        "Semi-Major Axis(m)": 7083131.272910544,
        "Time(s)": 11
    },
    {
        "Altitude(m)": 707154.8417089114,
        "Argument of Periapsis(deg)": 0.0007193760749448675,
        "Eccentricity": 0.0,
        "Inclination(deg)": 45.0,
        "Latitude(deg)": 44.46549926951723,
        "Longitude(deg)": 77.49530508933378,
        "Mean Anomaly(deg)": 98.91021368299879,
        "RAAN(deg)": 74.99932093001317,
        "Satellite Name": "Constellation 1 336",
        "Satellite Number": 336,
        "Semi-Major Axis(m)": 7083131.272910544,
        "Time(s)": 12
    },
    {
        "Altitude(m)": 707152.7400871771,
        "Argument of Periapsis(deg)": 0.000779324081190273,
        "Eccentricity": 0.0,
        "Inclination(deg)": 45.0,
        "Latitude(deg)": 44.45614712172814,
        "Longitude(deg)": 77.57505752564992,
        "Mean Anomaly(deg)": 98.97091482324869,
        "RAAN(deg)": 74.9992643408476,
        "Satellite Name": "Constellation 1 336",
        "Satellite Number": 336,
        "Semi-Major Axis(m)": 7083131.272910544,
        "Time(s)": 13
    },
    {
        "Altitude(m)": 707150.6247496784,
        "Argument of Periapsis(deg)": 0.0008392720874356787,
        "Eccentricity": 0.0,
        "Inclination(deg)": 45.0,
        "Latitude(deg)": 44.44673343178089,
        "Longitude(deg)": 77.65478312689369,
        "Mean Anomaly(deg)": 99.03161596349858,
        "RAAN(deg)": 74.99920775168202,
        "Satellite Name": "Constellation 1 336",
        "Satellite Number": 336,
        "Semi-Major Axis(m)": 7083131.272910544,
        "Time(s)": 14
    },
    {
        "Altitude(m)": 707148.4957088586,
        "Argument of Periapsis(deg)": 0.0008992200936810842,
        "Eccentricity": 0.0,
        "Inclination(deg)": 45.0,
        "Latitude(deg)": 44.43725823927253,
        "Longitude(deg)": 77.73448156659126,
        "Mean Anomaly(deg)": 99.09231710374847,
        "RAAN(deg)": 74.99915116251645,
        "Satellite Name": "Constellation 1 336",
        "Satellite Number": 336,
        "Semi-Major Axis(m)": 7083131.272910544,
        "Time(s)": 15
    },
    {
        "Altitude(m)": 707146.352977256,
        "Argument of Periapsis(deg)": 0.0009591680999264898,
        "Eccentricity": 0.0,
        "Inclination(deg)": 45.0,
        "Latitude(deg)": 44.427721584026806,
        "Longitude(deg)": 77.8141530230042,
        "Mean Anomaly(deg)": 99.15301824399836,
        "RAAN(deg)": 74.99909457335089,
        "Satellite Name": "Constellation 1 336",
        "Satellite Number": 336,
        "Semi-Major Axis(m)": 7083131.272910544,
        "Time(s)": 16
    },
    {
        "Altitude(m)": 707144.1965674837,
        "Argument of Periapsis(deg)": 0.0010191161061718953,
        "Eccentricity": 0.0,
        "Inclination(deg)": 45.0,
        "Latitude(deg)": 44.418123506092805,
        "Longitude(deg)": 77.89379717054767,
        "Mean Anomaly(deg)": 99.21371938424828,
        "RAAN(deg)": 74.99903798418532,
        "Satellite Name": "Constellation 1 336",
        "Satellite Number": 336,
        "Semi-Major Axis(m)": 7083131.272910544,
        "Time(s)": 17
    },
    {
        "Altitude(m)": 707142.0264922325,
        "Argument of Periapsis(deg)": 0.001079064112417301,
        "Eccentricity": 0.0,
        "Inclination(deg)": 45.0,
        "Latitude(deg)": 44.40846404574454,
        "Longitude(deg)": 77.97341385218168,
        "Mean Anomaly(deg)": 99.27442052449818,
        "RAAN(deg)": 74.99898139501975,
        "Satellite Name": "Constellation 1 336",
        "Satellite Number": 336,
        "Semi-Major Axis(m)": 7083131.272910544,
        "Time(s)": 18
    }
]